NORAD_CAT_ID,OBJECT_NAME,OBJECT_TYPE,EPOCH,MEAN_MOTION,ECCENTRICITY,INCLINATION,RA_OF_ASC_NODE,ARG_OF_PERICENTER,MEAN_ANOMALY,BSTAR,MEAN_MOTION_DOT,MEAN_MOTION_DDOT,TLE_LINE0,TLE_LINE1,TLE_LINE2,SEMIMAJOR_AXIS,PERIOD,APOGEE,PERIGEE,DECAYED
53780.0,STARLINK-4678,PAYLOAD,2024-06-02 15:29:25,15.08846989,0.0001383,53.2166,290.0341,88.7466,271.3684,0.00029771,4.454e-05,0.0,0 STARLINK-4678,1 53780U 22111H   24154.64543223  .00004454  00000-0  29771-3 0  9991,2 53780  53.2166 290.0341 0001383  88.7466 271.3684 15.08846989 96319,6917.859,95.437,540.681,538.767,0.0
53780.0,STARLINK-4678,PAYLOAD,2024-06-03 12:09:26,15.08844566,0.000121,53.2156,286.1661,101.4399,258.6729,0.00020001,2.897e-05,0.0,0 STARLINK-4678,1 53780U 22111H   24155.50655258  .00002897  00000-0  20001-3 0  9995,2 53780  53.2156 286.1661 0001210 101.4399 258.6729 15.08844566 95637,6917.866,95.437,540.568,538.894,0.0
53780.0,STARLINK-4678,PAYLOAD,2024-06-03 18:30:58,15.08852273,0.0001422,53.2169,284.978,86.9874,273.1281,0.00019695,2.849e-05,0.0,0 STARLINK-4678,1 53780U 22111H   24155.77150881  .00002849  00000-0  19695-3 0  9990,2 53780  53.2169 284.9780 0001422  86.9874 273.1281 15.08852273 96482,6917.843,95.437,540.692,538.724,0.0
53780.0,STARLINK-4678,PAYLOAD,2024-06-04 18:21:45,15.08839349,0.00012,53.2157,280.5153,86.354,273.759,4.0989e-06,-2.23e-06,0.0,0 STARLINK-4678,1 53780U 22111H   24156.76511472 -.00000223  00000-0  40989-5 0  9994,2 53780  53.2157 280.5153 0001200  86.3540 273.7590 15.08839349 95828,6917.882,95.438,540.578,538.917,0.0
53780.0,STARLINK-4678,PAYLOAD,2024-06-05 15:01:46,15.08839464,0.0001265,53.2153,276.6513,87.3977,272.716,8.983e-05,1.142e-05,0.0,0 STARLINK-4678,1 53780U 22111H   24157.62623765  .00001142  00000-0  89830-4 0  9996,2 53780  53.2153 276.6513 0001265  87.3977 272.7160 15.08839464 96760,6917.882,95.438,540.622,538.872,0.0
53780.0,STARLINK-4678,PAYLOAD,2024-06-05 18:12:33,15.08841447,0.0001257,53.216,276.0579,87.984,272.1296,6.044e-05,6.74e-06,0.0,0 STARLINK-4678,1 53780U 22111H   24157.75871657  .00000674  00000-0  60440-4 0  9990,2 53780  53.2160 276.0579 0001257  87.9840 272.1296 15.08841447 96780,6917.876,95.437,540.611,538.871,0.0
53780.0,STARLINK-4678,PAYLOAD,2024-06-06 00:34:05,15.0883976,0.000128,53.2165,274.8677,82.8192,277.2945,0.00014125,1.961e-05,0.0,0 STARLINK-4678,1 53780U 22111H   24158.02367909  .00001961  00000-0  14125-3 0  9999,2 53780  53.2165 274.8677 0001280  82.8192 277.2945 15.08839760 96018,6917.881,95.438,540.632,538.861,0.0
53780.0,STARLINK-4678,PAYLOAD,2024-06-06 11:41:48,15.08835277,0.0001225,53.2171,272.7872,88.3904,271.7228,1.3659e-05,-7e-07,0.0,0 STARLINK-4678,1 53780U 22111H   24158.48736395 -.00000070  00000-0  13659-4 0  9991,2 53780  53.2171 272.7872 0001225  88.3904 271.7228 15.08835277 96089,6917.895,95.438,540.607,538.912,0.0
53780.0,STARLINK-4678,PAYLOAD,2024-06-07 08:21:49,15.08837572,0.0001477,53.2162,268.9202,94.2527,265.8634,0.00020974,3.051e-05,0.0,0 STARLINK-4678,1 53780U 22111H   24159.34848515  .00003051  00000-0  20974-3 0  9993,2 53780  53.2162 268.9202 0001477  94.2527 265.8634 15.08837572 97029,6917.888,95.438,540.775,538.731,0.0
53780.0,STARLINK-4678,PAYLOAD,2024-06-07 16:18:44,15.08850389,0.0001554,53.215,267.4326,85.1946,274.9223,0.00022825,3.347e-05,0.0,0 STARLINK-4678,1 53780U 22111H   24159.67967893  .00003347  00000-0  22825-3 0  9995,2 53780  53.2150 267.4326 0001554  85.1946 274.9223 15.08850389 96268,6917.849,95.437,540.789,538.639,0.0
53780.0,STARLINK-4678,PAYLOAD,2024-06-08 00:15:40,15.0884509,0.0002238,53.2161,265.946,89.9946,270.1302,0.00033329,5.021e-05,0.0,0 STARLINK-4678,1 53780U 22111H   24160.01088384  .00005021  00000-0  33329-3 0  9996,2 53780  53.2161 265.9460 0002238  89.9946 270.1302 15.08845090 96319,6917.865,95.437,541.278,538.182,0.0
53780.0,STARLINK-4678,PAYLOAD,2024-06-08 11:23:21,15.0885269,0.0001207,53.2153,263.8669,83.8655,276.2475,0.00026298,3.901e-05,0.0,0 STARLINK-4678,1 53780U 22111H   24160.47455432  .00003901  00000-0  26298-3 0  9990,2 53780  53.2153 263.8669 0001207  83.8655 276.2475 15.08852690 97192,6917.842,95.437,540.542,538.872,0.0
53780.0,STARLINK-4678,PAYLOAD,2024-06-08 19:20:16,15.08866475,0.0001569,53.2135,262.3772,86.3539,273.7632,0.00029528,4.418e-05,0.0,0 STARLINK-4678,1 53780U 22111H   24160.80574379  .00004418  00000-0  29528-3 0  9992,2 53780  53.2135 262.3772 0001569  86.3539 273.7632 15.08866475 96430,6917.799,95.436,540.75,538.579,0.0
53780.0,STARLINK-4678,PAYLOAD,2024-06-09 11:14:09,15.08825815,0.0001284,53.2148,259.4038,87.7066,272.4073,-0.00034661,-5.798e-05,0.0,0 STARLINK-4678,1 53780U 22111H   24161.46816187 -.00005798  00000-0 -34661-3 0  9999,2 53780  53.2148 259.4038 0001284  87.7066 272.4073 15.08825815 96539,6917.924,95.438,540.677,538.9,0.0
53780.0,STARLINK-4678,PAYLOAD,2024-06-10 12:40:18,15.08854742,0.0001376,53.216,254.6471,72.2639,287.8503,-0.00014434,-2.585e-05,0.0,0 STARLINK-4678,1 53780U 22111H   24162.52799643 -.00002585  00000-0 -14434-3 0  9991,2 53780  53.2160 254.6471 0001376  72.2639 287.8503 15.08854742 96694,6917.835,95.437,540.652,538.748,0.0
53780.0,STARLINK-4678,PAYLOAD,2024-06-11 06:09:32,15.08869468,0.0001437,53.2178,251.3742,82.7492,277.3664,0.0008024,0.00012516,0.0,0 STARLINK-4678,1 53780U 22111H   24163.25662633  .00012516  00000-0  80240-3 0  9991,2 53780  53.2178 251.3742 0001437  82.7492 277.3664 15.08869468 96805,6917.79,95.436,540.649,538.661,0.0
53780.0,STARLINK-4678,PAYLOAD,2024-06-11 12:31:05,15.08835322,0.0001283,53.2163,250.1857,82.2379,277.8759,-0.00022939,-3.936e-05,0.0,0 STARLINK-4678,1 53780U 22111H   24163.52159426 -.00003936  00000-0 -22939-3 0  9991,2 53780  53.2163 250.1857 0001283  82.2379 277.8759 15.08835322 97657,6917.895,95.438,540.647,538.872,0.0
53780.0,STARLINK-4678,PAYLOAD,2024-06-12 06:00:21,15.08819364,0.0001364,53.2163,246.9151,88.2179,271.8969,-0.00026509,-4.502e-05,0.0,0 STARLINK-4678,1 53780U 22111H   24164.25024345 -.00004502  00000-0 -26509-3 0  9990,2 53780  53.2163 246.9151 0001364  88.2179 271.8969 15.08819364 96958,6917.943,95.439,540.752,538.865,0.0
53780.0,STARLINK-4678,PAYLOAD,2024-06-12 12:21:53,15.08827084,0.0001245,53.2159,245.7271,81.934,278.1793,-0.00019657,-3.414e-05,0.0,0 STARLINK-4678,1 53780U 22111H   24164.51520534 -.00003414  00000-0 -19657-3 0  9997,2 53780  53.2159 245.7271 0001245  81.9340 278.1793 15.08827084 97809,6917.92,95.438,540.646,538.924,0.0
53780.0,STARLINK-4678,PAYLOAD,2024-06-13 04:15:45,15.08829896,0.0001232,53.2157,242.7522,84.5461,275.5672,0.0003948,5.999e-05,0.0,0 STARLINK-4678,1 53780U 22111H   24165.17761289  .00005999  00000-0  39480-3 0  9998,2 53780  53.2157 242.7522 0001232  84.5461 275.5672 15.08829896 97093,6917.911,95.438,540.629,538.924,0.0
53780.0,STARLINK-4678,PAYLOAD,2024-06-13 12:12:41,15.08845613,0.0001255,53.2158,241.2668,86.1706,273.943,0.00062034,9.6e-05,0.0,0 STARLINK-4678,1 53780U 22111H   24165.50880977  .00009600  00000-0  62034-3 0  9995,2 53780  53.2158 241.2668 0001255  86.1706 273.9430 15.08845613 97149,6917.863,95.437,540.596,538.86,0.0
53780.0,STARLINK-4678,PAYLOAD,2024-06-14 13:38:51,15.08847026,0.0001249,53.2159,236.5105,93.8919,266.2216,0.00026042,3.86e-05,0.0,0 STARLINK-4678,1 53780U 22111H   24166.56864876  .00003860  00000-0  26042-3 0  9993,2 53780  53.2159 236.5105 0001249  93.8919 266.2216 15.08847026 98112,6917.859,95.437,540.588,538.86,0.0
53780.0,STARLINK-4678,PAYLOAD,2024-06-15 11:54:14,15.08848347,0.000125,53.2156,232.3473,91.5143,268.5992,0.00015829,2.233e-05,0.0,0 STARLINK-4678,1 53780U 22111H   24167.49600543  .00002233  00000-0  15829-3 0  9999,2 53780  53.2156 232.3473 0001250  91.5143 268.5992 15.08848347 98255,6917.855,95.437,540.585,538.855,0.0
53780.0,STARLINK-4678,PAYLOAD,2024-06-16 13:20:25,15.08844957,0.0001297,53.2154,227.5884,87.7121,272.4019,8.2157e-05,1.02e-05,0.0,0 STARLINK-4678,1 53780U 22111H   24168.55584655  .00001020  00000-0  82157-4 0  9994,2 53780  53.2154 227.5884 0001297  87.7121 272.4019 15.08844957 97604,6917.865,95.437,540.627,538.833,0.0
53780.0,STARLINK-4678,PAYLOAD,2024-06-16 21:17:21,15.08837753,0.0001115,53.2146,226.0983,91.1391,268.9729,-5.0299e-05,-1.088e-05,0.0,0 STARLINK-4678,1 53780U 22111H   24168.88704936 -.00001088  00000-0 -50299-4 0  9994,2 53780  53.2146 226.0983 0001115  91.1391 268.9729 15.08837753 98465,6917.887,95.438,540.524,538.981,0.0
53780.0,STARLINK-4678,PAYLOAD,2024-06-17 21:08:08,15.08840268,0.0001269,53.217,221.6395,89.9948,270.1189,5.6259e-05,6.08e-06,0.0,0 STARLINK-4678,1 53780U 22111H   24169.88065183  .00000608  00000-0  56259-4 0  9996,2 53780  53.2170 221.6395 0001269  89.9948 270.1189 15.08840268 98610,6917.88,95.438,540.622,538.867,0.0
53780.0,STARLINK-4678,PAYLOAD,2024-06-18 09:51:12,15.08845718,0.0001305,53.2165,219.2607,88.3735,271.7407,0.00013393,1.845e-05,0.0,0 STARLINK-4678,1 53780U 22111H   24170.41056649  .00001845  00000-0  13393-3 0  9999,2 53780  53.2165 219.2607 0001305  88.3735 271.7407 15.08845718 97884,6917.863,95.437,540.631,538.825,0.0
53780.0,STARLINK-4678,PAYLOAD,2024-06-19 09:42:00,15.0883452,0.0001289,53.2158,214.7999,87.1483,272.9657,7.7122e-05,9.4e-06,0.0,0 STARLINK-4678,1 53780U 22111H   24171.40417598  .00000940  00000-0  77122-4 0  9999,2 53780  53.2158 214.7999 0001289  87.1483 272.9657 15.08834520 98035,6917.897,95.438,540.654,538.87,0.0
53780.0,STARLINK-4678,PAYLOAD,2024-06-20 12:43:33,15.08843531,0.0001312,53.2159,209.7456,86.0952,274.019,4.8092e-05,4.78e-06,0.0,0 STARLINK-4678,1 53780U 22111H   24172.53025075  .00000478  00000-0  48092-4 0  9999,2 53780  53.2159 209.7456 0001312  86.0952 274.0190 15.08843531 99010,6917.87,95.437,540.642,538.827,0.0
53780.0,STARLINK-4678,PAYLOAD,2024-06-20 19:05:06,15.08839763,0.0001251,53.215,208.5554,83.3241,276.7893,4.8661e-05,4.87e-06,0.0,0 STARLINK-4678,1 53780U 22111H   24172.79521285  .00000487  00000-0  48661-4 0  9993,2 53780  53.2150 208.5554 0001251  83.3241 276.7893 15.08839763 98245,6917.881,95.438,540.612,538.881,0.0
